[{"OBJECT_NAME":"ISS OBJECT XT","OBJECT_ID":"1998-067XT","EPOCH":"2026-04-17T14:35:58.587936","MEAN_MOTION":15.8754773,"ECCENTRICITY":0.00110451,"INCLINATION":51.6202,"RA_OF_ASC_NODE":224.7027,"ARG_OF_PERICENTER":324.1887,"MEAN_ANOMALY":35.8376,"EPHEMERIS_TYPE":0,"CLASSIFICATION_TYPE":"U","NORAD_CAT_ID":66907,"ELEMENT_SET_NO":999,"REV_AT_EPOCH":2132,"BSTAR":0.00098527209,"MEAN_MOTION_DOT":0.00276836,"MEAN_MOTION_DDOT":0},{"OBJECT_NAME":"ISS OBJECT XU","OBJECT_ID":"1998-067XU","EPOCH":"2026-04-18T00:57:38.715552","MEAN_MOTION":15.88299606,"ECCENTRICITY":0.00111502,"INCLINATION":51.6205,"RA_OF_ASC_NODE":222.33,"ARG_OF_PERICENTER":325.69,"MEAN_ANOMALY":34.3383,"EPHEMERIS_TYPE":0,"CLASSIFICATION_TYPE":"U","NORAD_CAT_ID":66908,"ELEMENT_SET_NO":999,"REV_AT_EPOCH":2139,"BSTAR":0.0010282996,"MEAN_MOTION_DOT":0.00300791,"MEAN_MOTION_DDOT":0},{"OBJECT_NAME":"SILVERSAT","OBJECT_ID":"1998-067XV","EPOCH":"2026-04-16T13:37:16.934304","MEAN_MOTION":16.02081806,"ECCENTRICITY":0.00142748,"INCLINATION":51.6139,"RA_OF_ASC_NODE":227.4458,"ARG_OF_PERICENTER":326.0751,"MEAN_ANOMALY":33.9346,"EPHEMERIS_TYPE":0,"CLASSIFICATION_TYPE":"U","NORAD_CAT_ID":66909,"ELEMENT_SET_NO":999,"REV_AT_EPOCH":2119,"BSTAR":0.0012799304,"MEAN_MOTION_DOT":0.00764812,"MEAN_MOTION_DDOT":0.00028915268},{"OBJECT_NAME":"ISS OBJECT XW","OBJECT_ID":"1998-067XW","EPOCH":"2026-04-17T12:27:57.419712","MEAN_MOTION":15.83959237,"ECCENTRICITY":0.00102689,"INCLINATION":51.6191,"RA_OF_ASC_NODE":225.6053,"ARG_OF_PERICENTER":318.5885,"MEAN_ANOMALY":41.4338,"EPHEMERIS_TYPE":0,"CLASSIFICATION_TYPE":"U","NORAD_CAT_ID":66910,"ELEMENT_SET_NO":999,"REV_AT_EPOCH":2130,"BSTAR":0.00086964993,"MEAN_MOTION_DOT":0.00203348,"MEAN_MOTION_DDOT":0},{"OBJECT_NAME":"ISS OBJECT XY","OBJECT_ID":"1998-067XY","EPOCH":"2026-04-18T00:48:20.180160","MEAN_MOTION":15.72298875,"ECCENTRICITY":0.00070306,"INCLINATION":51.624,"RA_OF_ASC_NODE":226.8508,"ARG_OF_PERICENTER":317.6366,"MEAN_ANOMALY":42.4088,"EPHEMERIS_TYPE":0,"CLASSIFICATION_TYPE":"U","NORAD_CAT_ID":66912,"ELEMENT_SET_NO":999,"REV_AT_EPOCH":2132,"BSTAR":0.000783417,"MEAN_MOTION_DOT":0.00106858,"MEAN_MOTION_DDOT":0},{"OBJECT_NAME":"KNACKSAT-2","OBJECT_ID":"1998-067XZ","EPOCH":"2026-04-17T15:30:44.269344","MEAN_MOTION":15.55013169,"ECCENTRICITY":0.00116944,"INCLINATION":51.6301,"RA_OF_ASC_NODE":237.7977,"ARG_OF_PERICENTER":333.0256,"MEAN_ANOMALY":27.0126,"EPHEMERIS_TYPE":0,"CLASSIFICATION_TYPE":"U","NORAD_CAT_ID":67683,"ELEMENT_SET_NO":999,"REV_AT_EPOCH":1084,"BSTAR":0.00042009468,"MEAN_MOTION_DOT":0.00028417,"MEAN_MOTION_DDOT":0},{"OBJECT_NAME":"CORAL","OBJECT_ID":"1998-067YA","EPOCH":"2026-04-17T09:12:28.377792","MEAN_MOTION":15.61154222,"ECCENTRICITY":0.00154189,"INCLINATION":51.6282,"RA_OF_ASC_NODE":237.5408,"ARG_OF_PERICENTER":324.5537,"MEAN_ANOMALY":35.4431,"EPHEMERIS_TYPE":0,"CLASSIFICATION_TYPE":"U","NORAD_CAT_ID":67684,"ELEMENT_SET_NO":999,"REV_AT_EPOCH":1082,"BSTAR":0.00072060349,"MEAN_MOTION_DOT":0.00062386,"MEAN_MOTION_DDOT":0},{"OBJECT_NAME":"GXIBA-1","OBJECT_ID":"1998-067YB","EPOCH":"2026-04-18T01:51:45.314784","MEAN_MOTION":15.55789866,"ECCENTRICITY":0.00136607,"INCLINATION":51.6305,"RA_OF_ASC_NODE":235.4276,"ARG_OF_PERICENTER":331.6403,"MEAN_ANOMALY":28.3843,"EPHEMERIS_TYPE":0,"CLASSIFICATION_TYPE":"U","NORAD_CAT_ID":67685,"ELEMENT_SET_NO":999,"REV_AT_EPOCH":1091,"BSTAR":0.00053752345,"MEAN_MOTION_DOT":0.00037653,"MEAN_MOTION_DDOT":0},{"OBJECT_NAME":"UITMSAT-2","OBJECT_ID":"1998-067YC","EPOCH":"2026-04-17T12:48:39.300480","MEAN_MOTION":15.57172151,"ECCENTRICITY":0.00105046,"INCLINATION":51.6301,"RA_OF_ASC_NODE":237.7979,"ARG_OF_PERICENTER":308.9048,"MEAN_ANOMALY":51.1006,"EPHEMERIS_TYPE":0,"CLASSIFICATION_TYPE":"U","NORAD_CAT_ID":67686,"ELEMENT_SET_NO":999,"REV_AT_EPOCH":1083,"BSTAR":0.00047865553,"MEAN_MOTION_DOT":0.0003519,"MEAN_MOTION_DDOT":0},{"OBJECT_NAME":"HMU-SAT2","OBJECT_ID":"1998-067YD","EPOCH":"2026-04-17T09:06:33.441408","MEAN_MOTION":15.55427589,"ECCENTRICITY":0.00098344,"INCLINATION":51.6313,"RA_OF_ASC_NODE":239.0205,"ARG_OF_PERICENTER":309.6897,"MEAN_ANOMALY":50.3227,"EPHEMERIS_TYPE":0,"CLASSIFICATION_TYPE":"U","NORAD_CAT_ID":67687,"ELEMENT_SET_NO":999,"REV_AT_EPOCH":1072,"BSTAR":0.00041036666,"MEAN_MOTION_DOT":0.00028155,"MEAN_MOTION_DDOT":0},{"OBJECT_NAME":"LEOPARD","OBJECT_ID":"1998-067YE","EPOCH":"2026-04-18T01:27:55.350720","MEAN_MOTION":15.56565673,"ECCENTRICITY":0.00101604,"INCLINATION":51.63,"RA_OF_ASC_NODE":235.3199,"ARG_OF_PERICENTER":311.5426,"MEAN_ANOMALY":48.4693,"EPHEMERIS_TYPE":0,"CLASSIFICATION_TYPE":"U","NORAD_CAT_ID":67688,"ELEMENT_SET_NO":999,"REV_AT_EPOCH":1083,"BSTAR":0.0005262026,"MEAN_MOTION_DOT":0.00037869,"MEAN_MOTION_DDOT":0},{"OBJECT_NAME":"CREW DRAGON 12","OBJECT_ID":"2026-031A","EPOCH":"2026-04-18T01:41:27.917664","MEAN_MOTION":15.48808425,"ECCENTRICITY":0.00065768,"INCLINATION":51.6329,"RA_OF_ASC_NODE":237.6272,"ARG_OF_PERICENTER":320.1418,"MEAN_ANOMALY":39.9086,"EPHEMERIS_TYPE":0,"CLASSIFICATION_TYPE":"U","NORAD_CAT_ID":67796,"ELEMENT_SET_NO":999,"REV_AT_EPOCH":56250,"BSTAR":0.00014068517,"MEAN_MOTION_DOT":7.259e-5,"MEAN_MOTION_DDOT":0},{"OBJECT_NAME":"PROGRESS-MS 33","OBJECT_ID":"2026-058A","EPOCH":"2026-04-18T01:41:27.917664","MEAN_MOTION":15.48808425,"ECCENTRICITY":0.00065768,"INCLINATION":51.6329,"RA_OF_ASC_NODE":237.6272,"ARG_OF_PERICENTER":320.1418,"MEAN_ANOMALY":39.9086,"EPHEMERIS_TYPE":0,"CLASSIFICATION_TYPE":"U","NORAD_CAT_ID":68319,"ELEMENT_SET_NO":999,"REV_AT_EPOCH":316,"BSTAR":0.00014068517,"MEAN_MOTION_DOT":7.259e-5,"MEAN_MOTION_DDOT":0},{"OBJECT_NAME":"CYGNUS NG-24","OBJECT_ID":"2026-079A","EPOCH":"2026-04-18T01:41:27.917664","MEAN_MOTION":15.48808425,"ECCENTRICITY":0.00065768,"INCLINATION":51.6329,"RA_OF_ASC_NODE":237.6272,"ARG_OF_PERICENTER":320.1418,"MEAN_ANOMALY":39.9086,"EPHEMERIS_TYPE":0,"CLASSIFICATION_TYPE":"U","NORAD_CAT_ID":68689,"ELEMENT_SET_NO":999,"REV_AT_EPOCH":98,"BSTAR":0.00014068517,"MEAN_MOTION_DOT":7.259e-5,"MEAN_MOTION_DDOT":0}]
